<?xml version="1.0" encoding="UTF-8"?>
<kml xmlns="http://www.opengis.net/kml/2.2">
  <Document>
    <name>🇹🇼 대만 유명 전통 음식 & 레스토랑 15선</name>
    <description>실제 구글 지도 평점, 리뷰(긍정3/부정2), 추천메뉴 및 대중교통 정보가 포함된 타이베이 대표 맛집 지도</description>

    <Placemark>
      <name>푸항또우장 (阜杭豆漿)</name>
      <description><![CDATA[
        <h3>푸항또우장</h3>
        <p><b>카테고리:</b> 전통 조식 (또우장)</p>
        <p><b>구글 평점:</b> ★ 4.1</p>
        <p><b>주소:</b> 100 대만 Taipei City, Zhongzheng District, Xingfu Village, Section 1, Zhongxiao E Rd, 108號2樓</p>
        <p><b>대중교통:</b> MRT 반난선 샨다오스역 5번 출구 바로 앞 화산시장 2층</p>
        <p><b>추천 메뉴:</b> 호우샤오빙 자유티아오 (厚燒餅夾油條) / 셴또우장 (鹹豆漿) / 딴빙 (蛋餅)</p>
        <p><b>먹는 방법:</b> 셴또우장은 젓지 말고 순두부를 부드럽게 떠먹으며 유티아오를 적셔 먹음. 샤오빙은 갓 나왔을 때 온기가 있을 때 바로 취식.</p>
        <p><a href="https://www.google.com/maps?q=25.0442333,121.5248433" target="_blank">구글 지도에서 바로 보기</a></p>
      ]]></description>
      <Point>
        <coordinates>121.5248433,25.0442333,0</coordinates>
      </Point>
    </Placemark>
  
    <Placemark>
      <name>융허또우장 다안점 (永和豆漿大王 復興南路)</name>
      <description><![CDATA[
        <h3>융허또우장 다안점</h3>
        <p><b>카테고리:</b> 전통 조식 (또우장)</p>
        <p><b>구글 평점:</b> ★ 4.1</p>
        <p><b>주소:</b> No. 102號, Section 2, Fuxing S Rd, Longzhen Village, Da’an District, Taipei City, 대만 106</p>
        <p><b>대중교통:</b> MRT 다안역 5번 출구 도보 5분 (24시간 영업)</p>
        <p><b>추천 메뉴:</b> 딴빙 자유티아오 (蛋餅夾油條) / 빙톈또우장 (冰甜豆漿) / 샤오빙 총단 (燒餅夾蔥蛋)</p>
        <p><b>먹는 방법:</b> 테이블 간장 페이스트와 칠리소스를 딴빙에 뿌려 먹고, 시원한 톈또우장으로 입가심.</p>
        <p><a href="https://www.google.com/maps?q=25.0297337,121.5433359" target="_blank">구글 지도에서 바로 보기</a></p>
      ]]></description>
      <Point>
        <coordinates>121.5433359,25.0297337,0</coordinates>
      </Point>
    </Placemark>
  
    <Placemark>
      <name>딩위안또우장 (鼎元豆漿)</name>
      <description><![CDATA[
        <h3>딩위안또우장</h3>
        <p><b>카테고리:</b> 전통 조식 (또우장)</p>
        <p><b>구글 평점:</b> ★ 4.1</p>
        <p><b>주소:</b> No. 30-1號, Jinhua St, Xinying Village, Zhongzheng District, Taipei City, 대만 106</p>
        <p><b>대중교통:</b> MRT 중정기념당역 3번 출구 도보 6분</p>
        <p><b>추천 메뉴:</b> 소룡탕포 (小籠湯包) / 셴또우장 (鹹豆漿) / 총요우빙 (蔥油餅加蛋)</p>
        <p><b>먹는 방법:</b> 소룡포 피를 살짝 찢어 육즙을 먼저 마신 뒤 생강채와 흑초를 올려 한입에 먹음.</p>
        <p><a href="https://www.google.com/maps?q=25.0313264,121.5211797" target="_blank">구글 지도에서 바로 보기</a></p>
      ]]></description>
      <Point>
        <coordinates>121.5211797,25.0313264,0</coordinates>
      </Point>
    </Placemark>
  
    <Placemark>
      <name>유산동 우육면 (劉山東牛肉麵)</name>
      <description><![CDATA[
        <h3>유산동 우육면</h3>
        <p><b>카테고리:</b> 우육면</p>
        <p><b>구글 평점:</b> ★ 4.0</p>
        <p><b>주소:</b> No. 2號, Lane 14, Section 1, Kaifeng St, Liming Village, Zhongzheng District, Taipei City, 대만 100</p>
        <p><b>대중교통:</b> MRT 타이베이 메인역 Z4/Z6 출구 도보 4분</p>
        <p><b>추천 메뉴:</b> 칭둔 우육면 (清燉牛肉麵) / 홍샤오 우육면 (紅燒牛肉麵) / 파이구 (排骨)</p>
        <p><b>먹는 방법:</b> 생마늘을 까서 한 입 깨물고 우육면 면과 국물을 들이켜는 산둥식 방식. 쏸차이 추가.</p>
        <p><a href="https://www.google.com/maps?q=25.0457149,121.5137602" target="_blank">구글 지도에서 바로 보기</a></p>
      ]]></description>
      <Point>
        <coordinates>121.5137602,25.0457149,0</coordinates>
      </Point>
    </Placemark>
  
    <Placemark>
      <name>융캉우육면 (永康牛肉麵)</name>
      <description><![CDATA[
        <h3>융캉우육면</h3>
        <p><b>카테고리:</b> 우육면</p>
        <p><b>구글 평점:</b> ★ 3.7</p>
        <p><b>주소:</b> No. 17號, Lane 31, Section 2, Jinshan S Rd, Yongkang Village, Da’an District, Taipei City, 대만 106</p>
        <p><b>대중교통:</b> MRT 동먼역 4번/5번 출구 도보 3분</p>
        <p><b>추천 메뉴:</b> 홍샤오 반근반육면 (紅燒半筋半肉麵) / 분증배골 (粉蒸排骨) / 칭둔 우육면</p>
        <p><b>먹는 방법:</b> 매콤하고 진한 홍샤오 국물에 쏸차이를 듬뿍 넣고, 분증배골 바닥 고구마를 긁어먹음.</p>
        <p><a href="https://www.google.com/maps?q=25.0329382,121.5281111" target="_blank">구글 지도에서 바로 보기</a></p>
      ]]></description>
      <Point>
        <coordinates>121.5281111,25.0329382,0</coordinates>
      </Point>
    </Placemark>
  
    <Placemark>
      <name>임동방 우육면 (林東芳牛肉麵)</name>
      <description><![CDATA[
        <h3>임동방 우육면</h3>
        <p><b>카테고리:</b> 우육면</p>
        <p><b>구글 평점:</b> ★ 3.8</p>
        <p><b>주소:</b> No. 322號, Section 2, Bade Rd, Pitou Village, Zhongshan District, Taipei City, 대만 104</p>
        <p><b>대중교통:</b> MRT 중샤오푸싱역 1번 출구 도보 10분 (새벽 3시까지 영업)</p>
        <p><b>추천 메뉴:</b> 반근반육면 (半筋半肉麵) / 화화니 (花干) / 소고기 수육 (切牛肉)</p>
        <p><b>먹는 방법:</b> 맑은 한약재 육수를 맛본 뒤 주황색 특제 매운 소기름(라뉴요우)을 풀어 진국으로 변신.</p>
        <p><a href="https://www.google.com/maps?q=25.0472524,121.5430792" target="_blank">구글 지도에서 바로 보기</a></p>
      ]]></description>
      <Point>
        <coordinates>121.5430792,25.0472524,0</coordinates>
      </Point>
    </Placemark>
  
    <Placemark>
      <name>진펑 루로우판 (金峰魯肉飯)</name>
      <description><![CDATA[
        <h3>진펑 루로우판</h3>
        <p><b>카테고리:</b> 루로우판</p>
        <p><b>구글 평점:</b> ★ 3.7</p>
        <p><b>주소:</b> No. 10-1號, Section 1, Roosevelt Rd, Longfu Village, Zhongzheng District, Taipei City, 대만 100</p>
        <p><b>대중교통:</b> MRT 중정기념당역 2번 출구 바로 앞 도보 1분</p>
        <p><b>추천 메뉴:</b> 루로우판 (滷肉飯) / 루단 (滷蛋) & 루더우간 (滷豆干) / 딩볜차오 (鼎邊趖)</p>
        <p><b>먹는 방법:</b> 밥과 고기를 다 비비지 않고 숟가락으로 떠먹으며 오이절임 곁들임.</p>
        <p><a href="https://www.google.com/maps?q=25.0320911,121.5185362" target="_blank">구글 지도에서 바로 보기</a></p>
      ]]></description>
      <Point>
        <coordinates>121.5185362,25.0320911,0</coordinates>
      </Point>
    </Placemark>
  
    <Placemark>
      <name>황지 루로우판 (黃記魯肉飯)</name>
      <description><![CDATA[
        <h3>황지 루로우판</h3>
        <p><b>카테고리:</b> 루로우판</p>
        <p><b>구글 평점:</b> ★ 4.2</p>
        <p><b>주소:</b> No. 28號, Lane 183, Section 2, Zhongshan N Rd, Heng'an Village, Zhongshan District, Taipei City, 대만 104</p>
        <p><b>대중교통:</b> MRT 중산초교역 1번 출구 도보 5분</p>
        <p><b>추천 메뉴:</b> 루로우판 (滷肉飯) / 티팡 (蹄膀 족발조림) / 루죽순 (滷筍絲)</p>
        <p><b>먹는 방법:</b> 젤라틴 깍둑비계를 밥과 살살 섞어 먹고 부드러운 족발 살코기와 죽순 곁들임.</p>
        <p><a href="https://www.google.com/maps?q=25.0636698,121.524142" target="_blank">구글 지도에서 바로 보기</a></p>
      ]]></description>
      <Point>
        <coordinates>121.524142,25.0636698,0</coordinates>
      </Point>
    </Placemark>
  
    <Placemark>
      <name>천천리 (天天利美食坊)</name>
      <description><![CDATA[
        <h3>천천리</h3>
        <p><b>카테고리:</b> 루로우판</p>
        <p><b>구글 평점:</b> ★ 4.1</p>
        <p><b>주소:</b> 108 대만 Taipei City, Wanhua District, Wanshou Village, 漢中街32巷1號</p>
        <p><b>대중교통:</b> MRT 시먼역 6번 출구 도보 4분</p>
        <p><b>추천 메뉴:</b> 루로우판 지아 지단 (滷肉飯加煎蛋) / 커자이지엔 (蚵仔煎 굴전) / 뤄보가오 (蘿蔔糕)</p>
        <p><b>먹는 방법:</b> 반숙 계란 노른자를 톡 터뜨려 밥알 사이로 스며들게 한 뒤 비벼 먹음.</p>
        <p><a href="https://www.google.com/maps?q=25.0449773,121.5075459" target="_blank">구글 지도에서 바로 보기</a></p>
      ]]></description>
      <Point>
        <coordinates>121.5075459,25.0449773,0</coordinates>
      </Point>
    </Placemark>
  
    <Placemark>
      <name>핀샨 생맹해선 러차오 (品鱻生猛活海鮮)</name>
      <description><![CDATA[
        <h3>핀샨 생맹해선 러차오</h3>
        <p><b>카테고리:</b> 러차오 (대만식 선술집)</p>
        <p><b>구글 평점:</b> ★ 4.1</p>
        <p><b>주소:</b> No. 68號, Leli Rd, Quan'an Village, Da’an District, Taipei City, 대만 106</p>
        <p><b>대중교통:</b> MRT 류장리역 도보 6분</p>
        <p><b>추천 메뉴:</b> 창잉터우 (蒼蠅頭) / 차오거리 (炒蛤蜊) / 옌쑤샤 (鹽酥蝦)</p>
        <p><b>먹는 방법:</b> 무료 흰쌀밥에 창잉터우를 얹어 비벼 먹고 18일 타이완 생맥주 곁들임.</p>
        <p><a href="https://www.google.com/maps?q=25.0259679,121.5517508" target="_blank">구글 지도에서 바로 보기</a></p>
      ]]></description>
      <Point>
        <coordinates>121.5517508,25.0259679,0</coordinates>
      </Point>
    </Placemark>
  
    <Placemark>
      <name>중앙시장 생맹해선 100 러차오 (中央市場生猛海鮮 100)</name>
      <description><![CDATA[
        <h3>중앙시장 생맹해선 100 러차오</h3>
        <p><b>카테고리:</b> 러차오 (대만식 선술집)</p>
        <p><b>구글 평점:</b> ★ 3.6</p>
        <p><b>주소:</b> No. 52-1號, Section 1, Chang'an E Rd, Zhengshou Village, Zhongshan District, Taipei City, 대만 10491</p>
        <p><b>대중교통:</b> MRT 중산역 2번 출구 도보 10분 (장안동로 러차오 거리)</p>
        <p><b>추천 메뉴:</b> 펑리샤추 (鳳梨蝦球) / 톄반뉴러우 (鐵板牛肉) / 싼베이지 (三杯雞)</p>
        <p><b>먹는 방법:</b> 여러 가지 볶음 요리를 시켜 회전 테이블에 두고 셰어하며 맥주 파티.</p>
        <p><a href="https://www.google.com/maps?q=25.0481101,121.5282356" target="_blank">구글 지도에서 바로 보기</a></p>
      ]]></description>
      <Point>
        <coordinates>121.5282356,25.0481101,0</coordinates>
      </Point>
    </Placemark>
  
    <Placemark>
      <name>키키 레스토랑 신의점 (KiKi餐廳 台北信義)</name>
      <description><![CDATA[
        <h3>키키 레스토랑 신의점</h3>
        <p><b>카테고리:</b> 러차오 (대만식 선술집)</p>
        <p><b>구글 평점:</b> ★ 4.1</p>
        <p><b>주소:</b> 110 대만 Taipei City, Xinyi District, Xicun Village, Songshou Rd, 12號6樓</p>
        <p><b>대중교통:</b> MRT 타이베이101/세무역 4번 출구 도보 5분 (ATT 4 FUN 6층)</p>
        <p><b>추천 메뉴:</b> 라오피넌로우 (老皮嫩肉) / 창잉터우 (蒼蠅頭) / 펑리샤추 (鳳梨蝦球)</p>
        <p><b>먹는 방법:</b> 연두부 튀김을 숟가락으로 떠서 자작한 간장 소스를 적셔 먹고 창잉터우와 비빔밥.</p>
        <p><a href="https://www.google.com/maps?q=25.0354713,121.5638816" target="_blank">구글 지도에서 바로 보기</a></p>
      ]]></description>
      <Point>
        <coordinates>121.5638816,25.0354713,0</coordinates>
      </Point>
    </Placemark>
  
    <Placemark>
      <name>르 팔레 (미슐랭 3스타) (頤宮中餐廳 Le Palais)</name>
      <description><![CDATA[
        <h3>르 팔레 (미슐랭 3스타)</h3>
        <p><b>카테고리:</b> 미슐랭급 식당</p>
        <p><b>구글 평점:</b> ★ 4.5</p>
        <p><b>주소:</b> 103 대만 Taipei City, Datong District, Jianming Village, Section 1, Chengde Rd, 3號17樓</p>
        <p><b>대중교통:</b> MRT 타이베이 메인역 Y5 출구 도보 2분 (군품주점 17층)</p>
        <p><b>추천 메뉴:</b> 화염편피압 (火焰片皮鴨) / 춘풍득의장 (春風得意腸) / 선지압 (先知鴨)</p>
        <p><b>먹는 방법:</b> 오리 껍질을 백설탕에 찍어 먼저 먹은 후 밀전병에 파채와 쌈 싸 먹음. 뼈는 오리죽.</p>
        <p><a href="https://www.google.com/maps?q=25.0491485,121.5168698" target="_blank">구글 지도에서 바로 보기</a></p>
      ]]></description>
      <Point>
        <coordinates>121.5168698,25.0491485,0</coordinates>
      </Point>
    </Placemark>
  
    <Placemark>
      <name>마운틴 앤 씨 하우스 (미슐랭 1스타/그린스타) (山海樓 手工台菜餐廳)</name>
      <description><![CDATA[
        <h3>마운틴 앤 씨 하우스 (미슐랭 1스타/그린스타)</h3>
        <p><b>카테고리:</b> 미슐랭급 식당</p>
        <p><b>구글 평점:</b> ★ 4.1</p>
        <p><b>주소:</b> No. 94號, Section 2, Ren'ai Rd, San'ai Village, Zhongzheng District, Taipei City, 대만 100</p>
        <p><b>대중교통:</b> MRT 중샤오신성역 5번/6번 출구 도보 5분</p>
        <p><b>추천 메뉴:</b> 산해 호화 병반 (山海豪華拼盤) / 홍화게 찹쌀밥 (紅蟳米糕) / 금은삼보조 (金銀三寶料)</p>
        <p><b>먹는 방법:</b> 1930년대 연회 요리를 코스 순서로 즐기며, 게장을 찹쌀밥에 비벼 먹음.</p>
        <p><a href="https://www.google.com/maps?q=25.0379808,121.5314068" target="_blank">구글 지도에서 바로 보기</a></p>
      ]]></description>
      <Point>
        <coordinates>121.5314068,25.0379808,0</coordinates>
      </Point>
    </Placemark>
  
    <Placemark>
      <name>신예 대만요리 본점 (미슐랭 셀렉티드) (欣葉台菜 創始店)</name>
      <description><![CDATA[
        <h3>신예 대만요리 본점 (미슐랭 셀렉티드)</h3>
        <p><b>카테고리:</b> 미슐랭급 식당</p>
        <p><b>구글 평점:</b> ★ 4.2</p>
        <p><b>주소:</b> No. 34之1號, Shuangcheng St, Qingguang Village, Zhongshan District, Taipei City, 대만 10491</p>
        <p><b>대중교통:</b> MRT 중산초교역 1번 출구 도보 6분</p>
        <p><b>추천 메뉴:</b> 챠이보단 (菜脯蛋) / 싼베이지 (三杯雞) / 수제 행인두부 (欣葉手作杏仁豆腐)</p>
        <p><b>먹는 방법:</b> 원형 무절임 계란부침을 피자처럼 잘라 밥 위에 얹어 먹고, 식후 쫄깃한 행인두부.</p>
        <p><a href="https://www.google.com/maps?q=25.064512,121.525531" target="_blank">구글 지도에서 바로 보기</a></p>
      ]]></description>
      <Point>
        <coordinates>121.525531,25.064512,0</coordinates>
      </Point>
    </Placemark>
  
  </Document>
</kml>
